STARLINK-31410          
1 59179U 24045B   26068.45320963 -.00000150  00000+0  40978-5 0  9999
2 59179  43.0060  94.0186 0001537 287.7570  72.3113 15.27577428113129
FLOCK 4G-21             
1 62651U 25009AU  26068.19487675  .00013648  00000+0  49619-3 0  9998
2 62651  97.4032 151.1274 0000465 329.5782  30.5431 15.28381075 63677
